MEAN_MOTION;ECCENTRICITY;INCLINATION;RA_OF_ASC_NODE;ARG_OF_PERICENTER;MEAN_ANOMALY;BSTAR;MEAN_MOTION_DOT;MEAN_MOTION_DDOT;TYPE
0.99158082;0.0015117;5.5907;295.7691;19.9093;160.1558;0;-3.6E-7;0;Intelsat
0.9915854;0.0015094;5.5885;295.757;19.9781;184.1602;0;-6.6E-7;0;Intelsat
0.9915854;0.0015094;5.5885;295.757;19.9781;184.1602;0;-6.7E-7;0;Intelsat
0.99158926;0.001507;5.5864;295.746;20.0564;182.5898;0;-9.5E-7;0;Intelsat
0.99159092;0.0015061;5.5854;295.7413;20.0531;336.2625;0;-1.08E-6;0;Intelsat
0.991593;0.001505;5.5842;295.7349;20.136;181.0302;0;-1.24E-6;0;Intelsat
0.99159427;0.0015043;5.5834;295.7311;20.1314;309.0556;0;-1.33E-6;0;Intelsat
0.99159897;0.0015026;5.5799;295.7129;20.2824;177.8685;0;-1.74E-6;0;Intelsat
0.99159897;0.0015026;5.5799;295.7129;20.2824;177.8685;0;-1.74E-6;0;Intelsat
0.9916008;0.001501;5.5777;295.7019;20.3885;176.2688;0;-1.94E-6;0;Intelsat
0.99160254;0.0014996;5.5756;295.6905;20.4787;174.6918;0;-2.12E-6;0;Intelsat
0.99160254;0.0014996;5.5756;295.6905;20.4787;174.6918;0;-2.12E-6;0;Intelsat
0.9916033;0.0014987;5.5734;295.6794;20.5732;173.1219;0;-2.27E-6;0;Intelsat
0.99160322;0.0014973;5.5713;295.6691;20.68;145.9088;0;-2.39E-6;0;Intelsat
0.99160304;0.0014972;5.5701;295.6626;20.7541;350.6847;0;-2.46E-6;0;Intelsat
0.99160268;0.0014968;5.569;295.657;20.7845;169.9027;0;-2.51E-6;0;Intelsat
0.99160179;0.0014955;5.5668;295.6458;20.9108;168.2832;0;-2.59E-6;0;Intelsat
0.99160147;0.0014959;5.5665;295.6444;20.9209;209.351;0;-2.6E-6;0;Intelsat
0.99160016;0.0014946;5.5647;295.6353;21.0189;141.1088;0;-2.65E-6;0;Intelsat
0.99160007;0.0014947;5.5646;295.6344;21.0266;166.7005;0;-2.65E-6;0;Intelsat
0.99159935;0.0014939;5.5634;295.6288;21.1057;345.8483;0;-2.67E-6;0;Intelsat
0.99159821;0.0014935;5.5623;295.623;21.1482;165.0171;0;-2.69E-6;0;Intelsat
0.99159736;0.0014922;5.5612;295.6174;21.2305;344.1844;0;-2.7E-6;0;Intelsat
0.99159557;0.001492;5.5601;295.6118;21.2674;163.4069;0;-2.7E-6;0;Intelsat
0.99159287;0.0014895;5.5579;295.6006;21.4207;161.768;0;-2.68E-6;0;Intelsat
0.99158993;0.001487;5.5558;295.5902;21.5545;134.5386;0;-2.64E-6;0;Intelsat
0.99158612;0.0014839;5.5534;295.5783;21.7117;158.486;0;-2.55E-6;0;Intelsat
0.99158587;0.0014835;5.5532;295.5774;21.7258;184.0707;0;-2.55E-6;0;Intelsat
0.99158308;0.00148;5.5512;295.5672;21.8685;156.8146;0;-2.44E-6;0;Intelsat
0.99157957;0.0014766;5.5491;295.5568;21.9974;129.5803;0;-2.31E-6;0;Intelsat
0.99157898;0.0014763;5.5487;295.5551;22.0227;180.7549;0;-2.29E-6;0;Intelsat
0.99157565;0.0014724;5.5468;295.5456;22.1354;127.944;0;-2.14E-6;0;Intelsat
0.99157512;0.0014715;5.5465;295.544;22.1729;179.1035;0;-2.12E-6;0;Intelsat
0.99157203;0.0014683;5.5445;295.5344;22.2673;126.323;0;-1.96E-6;0;Intelsat
0.99157153;0.0014677;5.5442;295.5328;22.2964;177.4597;0;-1.94E-6;0;Intelsat
0.99156848;0.0014644;5.5423;295.5231;22.385;124.6882;0;-1.76E-6;0;Intelsat
0.99156505;0.0014596;5.54;295.5112;22.5088;123.0587;0;-1.56E-6;0;Intelsat
0.99156452;0.0014591;5.5397;295.5097;22.5233;174.2094;0;-1.53E-6;0;Intelsat
0.9915616;0.0014556;5.5378;295.4999;22.6049;121.4239;0;-1.36E-6;0;Intelsat
0.99155863;0.0014508;5.5356;295.4885;22.7125;119.84;0;-1.16E-6;0;Intelsat
0.99155828;0.0014497;5.5353;295.4868;22.735;170.9829;0;-1.14E-6;0;Intelsat
0.99155416;0.0014421;5.532;295.4695;22.8971;348.5488;0;-8.6E-7;0;Intelsat
0.99155269;0.0014402;5.5308;295.4629;22.9252;193.3591;0;-7.6E-7;0;Intelsat
0.99155056;0.0014363;5.5281;295.4498;22.9843;257.2514;0;-5.7E-7;0;Intelsat
0.9915493;0.0014347;5.5263;295.4406;23.0204;190.2523;0;-4.4E-7;0;Intelsat
0.99154814;0.0014321;5.523;295.4238;23.0591;18.2608;0;-2.0E-7;0;Intelsat
0.99154759;0.0014309;5.5214;295.4159;23.0724;277.1418;0;-1.0E-7;0;Intelsat
0.99154768;0.0014309;5.5209;295.4138;23.0739;346.9118;0;-6.0E-8;0;Intelsat
0.99154734;0.0014283;5.5177;295.3974;23.1384;158.4714;0;1.6E-7;0;Intelsat
0.99154785;0.0014269;5.5153;295.3853;23.179;185.3418;0;3.1E-7;0;Intelsat
0.99154858;0.0014265;5.5142;295.3798;23.2221;1.7281;0;3.7E-7;0;Intelsat
0.99155029;0.0014256;5.512;295.3689;23.2778;350.8573;0;4.8E-7;0;Intelsat
0.99155126;0.0014257;5.5108;295.3632;23.264;179.3958;0;5.2E-7;0;Intelsat
0.99155321;0.0014241;5.5087;295.3527;23.3267;152.2277;0;5.8E-7;0;Intelsat
0.9915574;0.0014218;5.5053;295.3349;23.4831;346.8851;0;6.0E-7;0;Intelsat
0.9915574;0.0014218;5.5053;295.3349;23.4831;346.8851;0;6.0E-7;0;Intelsat
0.99156069;0.0014203;5.503;295.3235;23.5559;340.5911;0;5.7E-7;0;Intelsat
0.99156316;0.0014193;5.5014;295.315;23.6021;238.4498;0;5.2E-7;0;Intelsat
0.99156636;0.0014172;5.4995;295.3056;23.6836;171.4318;0;4.5E-7;0;Intelsat
0.99156833;0.0014157;5.4982;295.299;23.7568;16.2069;0;3.8E-7;0;Intelsat
0.99157258;0.0014133;5.496;295.2875;23.8478;14.6018;0;2.5E-7;0;Intelsat
0.9915748;0.0014123;5.4948;295.2818;23.9079;193.7682;0;1.7E-7;0;Intelsat
0.99157688;0.0014102;5.4937;295.2761;23.9472;12.9984;0;9.0E-8;0;Intelsat
0.99158139;0.0014066;5.4914;295.2646;24.0472;11.4018;0;-9.0E-8;0;Intelsat
0.99158472;0.0014039;5.4897;295.2559;24.1396;280.755;0;-2.4E-7;0;Intelsat
0.99158568;0.0014034;5.4891;295.2531;24.1454;9.7399;0;-2.9E-7;0;Intelsat
0.99159024;0.0013995;5.4868;295.2416;24.2297;8.1636;0;-5.0E-7;0;Intelsat
0.9915938;0.0013964;5.4849;295.2319;24.3156;309.734;0;-6.9E-7;0;Intelsat
0.99159424;0.001396;5.4845;295.23;24.3186;6.555;0;-7.3E-7;0;Intelsat
0.99159642;0.0013946;5.4834;295.2242;24.4116;188.036;0;-8.5E-7;0;Intelsat
0.99159846;0.0013923;5.4822;295.2184;24.3962;4.9995;0;-9.7E-7;0;Intelsat
0.99160044;0.0013906;5.481;295.2121;24.4886;197.6414;0;-1.1E-6;0;Intelsat
0.99160327;0.0013872;5.479;295.2017;24.5406;156.9899;0;-1.32E-6;0;Intelsat
0.99160476;0.0013845;5.4777;295.1953;24.5485;351.3248;0;-1.46E-6;0;Intelsat
0.99160752;0.0013802;5.4754;295.1831;24.6075;0.2924;0;-1.73E-6;0;Intelsat
0.99160863;0.0013782;5.4743;295.1771;24.6578;179.476;0;-1.86E-6;0;Intelsat
0.99160968;0.001376;5.4732;295.1712;24.6534;358.7342;0;-2.0E-6;0;Intelsat
0.99161139;0.0013703;5.4698;295.1534;24.7098;176.8509;0;-2.38E-6;0;Intelsat
0.99161164;0.0013682;5.4692;295.15;24.7051;279.4928;0;-2.46E-6;0;Intelsat
0.99161194;0.0013647;5.467;295.1385;24.7076;275.4819;0;-2.68E-6;0;Intelsat
0.99161126;0.0013619;5.4649;295.1272;24.7069;266.0732;0;-2.88E-6;0;Intelsat
0.99161085;0.0013608;5.4643;295.1244;24.713;352.6978;0;-2.92E-6;0;Intelsat
0.99160981;0.0013593;5.4627;295.1158;24.7045;263.614;0;-3.03E-6;0;Intelsat
0.99160948;0.0013589;5.4621;295.113;24.7047;351.2197;0;-3.06E-6;0;Intelsat
0.9916073;0.0013569;5.4599;295.1015;24.7013;349.7143;0;-3.15E-6;0;Intelsat
0.99160715;0.0013568;5.4598;295.1007;24.7012;15.3453;0;-3.16E-6;0;Intelsat
0.99160411;0.0013559;5.4575;295.0892;24.7016;13.8316;0;-3.19E-6;0;Intelsat
0.99160114;0.0013548;5.4554;295.0784;24.7097;346.7168;0;-3.16E-6;0;Intelsat
0.99159661;0.0013527;5.453;295.0658;24.7237;10.8144;0;-3.08E-6;0;Intelsat
0.99159221;0.0013518;5.4509;295.0548;24.7441;343.6967;0;-2.96E-6;0;Intelsat
0.99159184;0.0013513;5.4508;295.0539;24.742;9.2978;0;-2.95E-6;0;Intelsat
0.99158688;0.0013499;5.4485;295.0419;24.7655;7.7724;0;-2.78E-6;0;Intelsat
0.99158208;0.0013485;5.4463;295.0301;24.7975;350.7533;0;-2.59E-6;0;Intelsat
0.9915818;0.0013482;5.4462;295.0295;24.7987;6.2505;0;-2.59E-6;0;Intelsat
0.99157913;0.001348;5.4451;295.0235;24.7558;185.5279;0;-2.48E-6;0;Intelsat
0.99157631;0.0013474;5.4439;295.0174;24.8409;4.7056;0;-2.36E-6;0;Intelsat
0.99157097;0.0013459;5.4417;295.0057;24.8851;353.5888;0;-2.12E-6;0;Intelsat
0.99156815;0.0013451;5.4405;294.9993;24.8488;182.4264;0;-1.98E-6;0;Intelsat
0.99156589;0.0013442;5.4395;294.9943;24.93;335.9805;0;-1.87E-6;0;Intelsat
0.99156062;0.0013401;5.4371;294.9815;24.9844;353.7678;0;-1.57E-6;0;Intelsat
0.99156062;0.0013401;5.4371;294.9815;24.9844;353.7678;0;-1.57E-6;0;Intelsat
0.99155592;0.0013382;5.435;294.9701;25.0349;332.8532;0;-1.29E-6;0;Intelsat
0.99155141;0.0013351;5.4326;294.9579;25.0901;333.4995;0;-9.8E-7;0;Intelsat
0.9915511;0.0013347;5.4325;294.9571;25.0947;356.8798;0;-9.6E-7;0;Intelsat
0.99154763;0.0013314;5.4303;294.9456;25.1444;340.2038;0;-6.7E-7;0;Intelsat
0.99154457;0.0013279;5.4281;294.9339;25.1933;328.14;0;-3.8E-7;0;Intelsat
0.99154428;0.0013274;5.4279;294.9331;25.1973;353.7336;0;-3.5E-7;0;Intelsat
0.99154187;0.0013242;5.4258;294.9218;25.2456;326.5682;0;-8.0E-8;0;Intelsat
0.99154021;0.0013207;5.4236;294.9104;25.2965;299.4075;0;1.7E-7;0;Intelsat
0.99153993;0.0013197;5.4233;294.9088;25.292;350.6072;0;2.1E-7;0;Intelsat
0.99153879;0.0013162;5.4212;294.8975;25.3355;322.1905;0;4.4E-7;0;Intelsat
0.99153868;0.0013146;5.4199;294.8905;25.3725;168.2035;0;5.6E-7;0;Intelsat
0.99153855;0.0013123;5.4185;294.8834;25.3731;13.0562;0;6.8E-7;0;Intelsat
0.99153913;0.0013089;5.4166;294.8727;25.4006;320.2841;0;8.2E-7;0;Intelsat
0.99154025;0.0013055;5.4143;294.8602;25.4205;318.7369;0;9.3E-7;0;Intelsat
0.99154041;0.001305;5.414;294.8585;25.4189;9.9652;0;9.5E-7;0;Intelsat
0.99154139;0.0013027;5.4129;294.8523;25.4322;189.1865;0;9.8E-7;0;Intelsat
0.99154382;0.0012992;5.4107;294.8398;25.4249;187.6479;0;1.01E-6;0;Intelsat
0.99154797;0.0012943;5.4077;294.8229;25.372;312.6446;0;9.6E-7;0;Intelsat
0.99155018;0.001292;5.4063;294.8149;25.3584;184.7024;0;9.0E-7;0;Intelsat
0.99155195;0.0012909;5.4052;294.8091;25.3287;355.2302;0;8.5E-7;0;Intelsat
0.99155411;0.0012896;5.4041;294.8028;25.3184;183.228;0;7.9E-7;0;Intelsat
0.99156021;0.0012865;5.4011;294.7862;25.2129;309.8312;0;5.8E-7;0;Intelsat
0.99156079;0.0012863;5.4008;294.7845;25.2132;1.0585;0;5.5E-7;0;Intelsat
0.9915631;0.0012854;5.3997;294.7784;25.2025;180.3053;0;4.7E-7;0;Intelsat
0.99156767;0.0012837;5.3974;294.7663;25.1413;178.8362;0;2.8E-7;0;Intelsat
0.99156972;0.0012834;5.3965;294.7612;25.1007;332.5169;0;2.0E-7;0;Intelsat
0.99157449;0.0012829;5.3942;294.749;25.0791;331.0171;0;0;0;Intelsat
0.99157709;0.0012821;5.3929;294.742;25.0546;175.9069;0;-1.1E-7;0;Intelsat
0.99157917;0.0012818;5.392;294.7367;25.0331;329.5958;0;-2.0E-7;0;Intelsat
0.99158583;0.0012801;5.3884;294.7171;24.9547;173.0078;0;-5.4E-7;0;Intelsat
0.9915898;0.0012796;5.3862;294.7045;24.9327;171.5153;0;-7.6E-7;0;Intelsat
